{
  "type": "FeatureCollection",
  "features": [
    {
      "type": "Feature",
      "properties": {
        "norad_id": 31160,
        "name": "FENGYUN 1C DEB",
        "group": "fengyun-1c-debris",
        "lat": 25.179283976436267,
        "lon": -121.70092107818878,
        "alt_km": 880.4850382259674,
        "timestamp": "2025-12-23T18:59:32.247820+00:00",
        "meta_object_name": "FENGYUN 1C DEB",
        "meta_object_id": "1999-025BHN",
        "meta_epoch": "2025-12-20T09:36:45.685728",
        "meta_mean_motion": 13.99593742,
        "meta_eccentricity": 0.00573532,
        "meta_inclination": 99.0842,
        "meta_ra_of_asc_node": 50.6217,
        "meta_arg_of_pericenter": 234.6128,
        "meta_mean_anomaly": 124.967,
        "meta_ephemeris_type": 0,
        "meta_classification_type": "U",
        "meta_norad_cat_id": 31160,
        "meta_element_set_no": 999,
        "meta_rev_at_epoch": 69706,
        "meta_bstar": -3.919179e-05,
        "meta_mean_motion_dot": -1.03e-06,
        "meta_mean_motion_ddot": 0,
        "tle_line1": "1 31160U 99025BHN 25354.40052877 -.00000103  00000+0 -39192-4 0  9991",
        "tle_line2": "2 31160  99.0842  50.6217 0057353 234.6128 124.9670 13.99593742697064"
      },
      "geometry": {
        "type": "Point",
        "coordinates": [
          -121.70092107818878,
          25.179283976436267
        ]
      }
    },
    {
      "type": "Feature",
      "properties": {
        "norad_id": 31161,
        "name": "FENGYUN 1C DEB",
        "group": "fengyun-1c-debris",
        "lat": -41.95270881729926,
        "lon": -168.89922595949767,
        "alt_km": 873.4156663141166,
        "timestamp": "2025-12-23T18:59:32.247829+00:00",
        "meta_object_name": "FENGYUN 1C DEB",
        "meta_object_id": "1999-025BHP",
        "meta_epoch": "2025-12-22T19:46:56.225568",
        "meta_mean_motion": 14.09261534,
        "meta_eccentricity": 0.00679579,
        "meta_inclination": 98.7477,
        "meta_ra_of_asc_node": 18.1173,
        "meta_arg_of_pericenter": 321.3917,
        "meta_mean_anomaly": 38.2405,
        "meta_ephemeris_type": 0,
        "meta_classification_type": "U",
        "meta_norad_cat_id": 31161,
        "meta_element_set_no": 999,
        "meta_rev_at_epoch": 96244,
        "meta_bstar": 0.00025213297,
        "meta_mean_motion_dot": 4.05e-06,
        "meta_mean_motion_ddot": 0,
        "tle_line1": "1 31161U 99025BHP 25356.82426187  .00000405  00000+0  25213-3 0  9990",
        "tle_line2": "2 31161  98.7477  18.1173 0067957 321.3917  38.2405 14.09261534962449"
      },
      "geometry": {
        "type": "Point",
        "coordinates": [
          -168.89922595949767,
          -41.95270881729926
        ]
      }
    },
    {
      "type": "Feature",
      "properties": {
        "norad_id": 31165,
        "name": "FENGYUN 1C DEB",
        "group": "fengyun-1c-debris",
        "lat": 71.48093833774286,
        "lon": -93.58322928848109,
        "alt_km": 653.3826358468477,
        "timestamp": "2025-12-23T18:59:32.247838+00:00",
        "meta_object_name": "FENGYUN 1C DEB",
        "meta_object_id": "1999-025BHT",
        "meta_epoch": "2025-12-22T10:09:25.056288",
        "meta_mean_motion": 14.71190217,
        "meta_eccentricity": 0.00695373,
        "meta_inclination": 98.884,
        "meta_ra_of_asc_node": 57.0885,
        "meta_arg_of_pericenter": 204.5781,
        "meta_mean_anomaly": 220.6474,
        "meta_ephemeris_type": 0,
        "meta_classification_type": "U",
        "meta_norad_cat_id": 31165,
        "meta_element_set_no": 999,
        "meta_rev_at_epoch": 98897,
        "meta_bstar": 0.0013155503,
        "meta_mean_motion_dot": 8.363e-05,
        "meta_mean_motion_ddot": 0,
        "tle_line1": "1 31165U 99025BHT 25356.42320667  .00008363  00000+0  13156-2 0  9999",
        "tle_line2": "2 31165  98.8840  57.0885 0069537 204.5781 220.6474 14.71190217988974"
      },
      "geometry": {
        "type": "Point",
        "coordinates": [
          -93.58322928848109,
          71.48093833774286
        ]
      }
    },
    {
      "type": "Feature",
      "properties": {
        "norad_id": 31168,
        "name": "FENGYUN 1C DEB",
        "group": "fengyun-1c-debris",
        "lat": -42.86190090397431,
        "lon": -58.377971712180965,
        "alt_km": 750.0900030549419,
        "timestamp": "2025-12-23T18:59:32.247850+00:00",
        "meta_object_name": "FENGYUN 1C DEB",
        "meta_object_id": "1999-025BHW",
        "meta_epoch": "2025-12-23T03:15:01.575360",
        "meta_mean_motion": 14.67415619,
        "meta_eccentricity": 0.01084037,
        "meta_inclination": 98.8914,
        "meta_ra_of_asc_node": 129.264,
        "meta_arg_of_pericenter": 31.6455,
        "meta_mean_anomaly": 329.1204,
        "meta_ephemeris_type": 0,
        "meta_classification_type": "U",
        "meta_norad_cat_id": 31168,
        "meta_element_set_no": 999,
        "meta_rev_at_epoch": 99273,
        "meta_bstar": 0.00061535778,
        "meta_mean_motion_dot": 3.74e-05,
        "meta_mean_motion_ddot": 0,
        "tle_line1": "1 31168U 99025BHW 25357.13543490  .00003740  00000+0  61536-3 0  9992",
        "tle_line2": "2 31168  98.8914 129.2640 0108403  31.6455 329.1204 14.67415619992739"
      },
      "geometry": {
        "type": "Point",
        "coordinates": [
          -58.377971712180965,
          -42.86190090397431
        ]
      }
    },
    {
      "type": "Feature",
      "properties": {
        "norad_id": 31169,
        "name": "FENGYUN 1C DEB",
        "group": "fengyun-1c-debris",
        "lat": -74.33822751688666,
        "lon": 169.60636079516334,
        "alt_km": 809.1085307430385,
        "timestamp": "2025-12-23T18:59:32.247861+00:00",
        "meta_object_name": "FENGYUN 1C DEB",
        "meta_object_id": "1999-025BHX",
        "meta_epoch": "2025-12-20T00:34:09.920352",
        "meta_mean_motion": 14.26515357,
        "meta_eccentricity": 0.00572465,
        "meta_inclination": 99.1561,
        "meta_ra_of_asc_node": 20.7855,
        "meta_arg_of_pericenter": 356.2914,
        "meta_mean_anomaly": 3.7833,
        "meta_ephemeris_type": 0,
        "meta_classification_type": "U",
        "meta_norad_cat_id": 31169,
        "meta_element_set_no": 999,
        "meta_rev_at_epoch": 57208,
        "meta_bstar": 0.0014006304,
        "meta_mean_motion_dot": 3.388e-05,
        "meta_mean_motion_ddot": 0,
        "tle_line1": "1 31169U 99025BHX 25354.02372593  .00003388  00000+0  14006-2 0  9999",
        "tle_line2": "2 31169  99.1561  20.7855 0057246 356.2914   3.7833 14.26515357572089"
      },
      "geometry": {
        "type": "Point",
        "coordinates": [
          169.60636079516334,
          -74.33822751688666
        ]
      }
    },
    {
      "type": "Feature",
      "properties": {
        "norad_id": 31171,
        "name": "FENGYUN 1C DEB",
        "group": "fengyun-1c-debris",
        "lat": -31.705158711760518,
        "lon": -8.327846592795717,
        "alt_km": 702.2509375326772,
        "timestamp": "2025-12-23T18:59:32.247870+00:00",
        "meta_object_name": "FENGYUN 1C DEB",
        "meta_object_id": "1999-025BHZ",
        "meta_epoch": "2025-12-23T05:49:54.685056",
        "meta_mean_motion": 14.35071995,
        "meta_eccentricity": 0.01531947,
        "meta_inclination": 98.0162,
        "meta_ra_of_asc_node": 346.1686,
        "meta_arg_of_pericenter": 284.8924,
        "meta_mean_anomaly": 90.6441,
        "meta_ephemeris_type": 0,
        "meta_classification_type": "U",
        "meta_norad_cat_id": 31171,
        "meta_element_set_no": 999,
        "meta_rev_at_epoch": 95981,
        "meta_bstar": 0.0038414381,
        "meta_mean_motion_dot": 0.00012487,
        "meta_mean_motion_ddot": 0,
        "tle_line1": "1 31171U 99025BHZ 25357.24299404  .00012487  00000+0  38414-2 0  9997",
        "tle_line2": "2 31171  98.0162 346.1686 0153194 284.8924  90.6441 14.35071995959815"
      },
      "geometry": {
        "type": "Point",
        "coordinates": [
          -8.327846592795717,
          -31.705158711760518
        ]
      }
    },
    {
      "type": "Feature",
      "properties": {
        "norad_id": 31172,
        "name": "FENGYUN 1C DEB",
        "group": "fengyun-1c-debris",
        "lat": 81.19216255022678,
        "lon": -71.09030982698724,
        "alt_km": 868.9380619275889,
        "timestamp": "2025-12-23T18:59:32.247878+00:00",
        "meta_object_name": "FENGYUN 1C DEB",
        "meta_object_id": "1999-025BJA",
        "meta_epoch": "2025-12-21T06:11:02.573952",
        "meta_mean_motion": 14.31521172,
        "meta_eccentricity": 0.0148148,
        "meta_inclination": 98.4247,
        "meta_ra_of_asc_node": 359.4826,
        "meta_arg_of_pericenter": 243.1,
        "meta_mean_anomaly": 115.498,
        "meta_ephemeris_type": 0,
        "meta_classification_type": "U",
        "meta_norad_cat_id": 31172,
        "meta_element_set_no": 999,
        "meta_rev_at_epoch": 97748,
        "meta_bstar": 0.00011795,
        "meta_mean_motion_dot": 3.07e-06,
        "meta_mean_motion_ddot": 0,
        "tle_line1": "1 31172U 99025BJA 25355.25766868  .00000307  00000+0  11795-3 0  9992",
        "tle_line2": "2 31172  98.4247 359.4826 0148148 243.1000 115.4980 14.31521172977483"
      },
      "geometry": {
        "type": "Point",
        "coordinates": [
          -71.09030982698724,
          81.19216255022678
        ]
      }
    }
  ]
}